NORAD_CAT_ID,OBJECT_NAME,OBJECT_TYPE,EPOCH,MEAN_MOTION,ECCENTRICITY,INCLINATION,RA_OF_ASC_NODE,ARG_OF_PERICENTER,MEAN_ANOMALY,BSTAR,MEAN_MOTION_DOT,MEAN_MOTION_DDOT,TLE_LINE0,TLE_LINE1,TLE_LINE2,SEMIMAJOR_AXIS,PERIOD,APOGEE,PERIGEE,DECAYED
52560.0,STARLINK-3956,PAYLOAD,2022-10-20 08:14:58,15.08848376,0.0001758,53.2173,269.2919,53.0569,307.0583,-3.9418e-05,-9.16e-06,0.0,0 STARLINK-3956,1 52560U 22051AD  22293.34373744 -.00000916  00000-0 -39418-4 0  9998,2 52560  53.2173 269.2919 0001758  53.0569 307.0583 15.08848376 24932,6917.855,95.437,540.936,538.504,0.0
52560.0,STARLINK-3956,PAYLOAD,2022-10-20 17:47:17,15.08844957,0.0001901,53.2172,267.5089,49.8297,310.2861,9.205e-05,1.177e-05,0.0,0 STARLINK-3956,1 52560U 22051AD  22293.74117653  .00001177  00000-0  92050-4 0  9996,2 52560  53.2172 267.5089 0001901  49.8297 310.2861 15.08844957 24993,6917.865,95.437,541.045,538.415,0.0
52560.0,STARLINK-3956,PAYLOAD,2022-10-21 04:54:59,15.08838962,0.0001747,53.2175,265.4268,50.7558,309.3588,0.00011068,1.474e-05,0.0,0 STARLINK-3956,1 52560U 22051AD  22294.20485989  .00001474  00000-0  11068-3 0  9997,2 52560  53.2175 265.4268 0001747  50.7558 309.3588 15.08838962 25132,6917.884,95.438,540.957,538.54,0.0
52560.0,STARLINK-3956,PAYLOAD,2022-10-21 08:05:46,15.08840617,0.000174,53.2178,264.8313,51.6826,308.4322,9.2921e-05,1.191e-05,0.0,0 STARLINK-3956,1 52560U 22051AD  22294.33733898  .00001191  00000-0  92921-4 0  9990,2 52560  53.2178 264.8313 0001740  51.6826 308.4322 15.08840617 25080,6917.879,95.438,540.947,538.54,0.0
52560.0,STARLINK-3956,PAYLOAD,2022-10-22 06:21:09,15.08844331,0.000169,53.2173,260.6688,49.6157,310.4982,0.00010271,1.347e-05,0.0,0 STARLINK-3956,1 52560U 22051AD  22295.26469536  .00001347  00000-0  10271-3 0  9998,2 52560  53.2173 260.6688 0001690  49.6157 310.4982 15.08844331 25220,6917.8669999999975,95.437,540.901,538.563,0.0
52560.0,STARLINK-3956,PAYLOAD,2022-10-22 14:18:06,15.088356,0.0001781,53.2192,259.1821,46.0182,314.0957,-1.6862e-05,-5.56e-06,0.0,0 STARLINK-3956,1 52560U 22051AD  22295.59590415 -.00000556  00000-0 -16862-4 0  9991,2 52560  53.2192 259.1821 0001781  46.0182 314.0957 15.08835600 25279,6917.894,95.438,540.991,538.5269999999998,0.0
52560.0,STARLINK-3956,PAYLOAD,2022-10-22 22:15:01,15.08837484,0.0001608,53.2174,257.6944,48.5602,311.5528,8.6191e-05,1.084e-05,0.0,0 STARLINK-3956,1 52560U 22051AD  22295.92709986  .00001084  00000-0  86191-4 0  9990,2 52560  53.2174 257.6944 0001608  48.5602 311.5528 15.08837484 25391,6917.888000000001,95.438,540.865,538.641,0.0
52560.0,STARLINK-3956,PAYLOAD,2022-10-23 04:36:33,15.08846722,0.0001732,53.2178,256.5048,57.4719,302.6441,0.00018115,2.597e-05,0.0,0 STARLINK-3956,1 52560U 22051AD  22296.19205394  .00002597  00000-0  18115-3 0  9994,2 52560  53.2178 256.5048 0001732  57.4719 302.6441 15.08846722 25439,6917.86,95.437,540.923,538.5269999999998,0.0
52560.0,STARLINK-3956,PAYLOAD,2022-10-23 07:47:19,15.08847026,0.0001909999999999,53.2177,255.9144,54.7157,305.4013,0.00011603,1.559e-05,0.0,0 STARLINK-3956,1 52560U 22051AD  22296.32453515  .00001559  00000-0  11603-3 0  9991,2 52560  53.2177 255.9144 0001910  54.7157 305.4013 15.08847026 25380,6917.859,95.437,541.045,538.403,0.0
52560.0,STARLINK-3956,PAYLOAD,2022-10-23 14:08:52,15.08848175,0.0001862,53.2176,254.7251,54.7785,305.3381,9.604e-05,1.241e-05,0.0,0 STARLINK-3956,1 52560U 22051AD  22296.58949291  .00001241  00000-0  96040-4 0  9997,2 52560  53.2176 254.7251 0001862  54.7785 305.3381 15.08848175 25426,6917.855,95.437,541.009,538.432,0.0
52560.0,STARLINK-3956,PAYLOAD,2022-10-24 07:38:06,15.08843062,0.0001925,53.2187,251.4518,50.4942,309.622,3.1528e-05,2.14e-06,0.0,0 STARLINK-3956,1 52560U 22051AD  22297.31813206  .00000214  00000-0  31528-4 0  9994,2 52560  53.2187 251.4518 0001925  50.4942 309.6220 15.08843062 25605,6917.871,95.437,541.068,538.404,0.0
52560.0,STARLINK-3956,PAYLOAD,2022-10-24 15:35:03,15.08821128,0.0001992,53.2154,249.9633,51.785,308.3322,-0.00018659,-3.255e-05,0.0,0 STARLINK-3956,1 52560U 22051AD  22297.64934504 -.00003255  00000-0 -18659-3 0  9994,2 52560  53.2154 249.9633 0001992  51.7850 308.3322 15.08821128 25658,6917.938,95.439,541.181,538.425,0.0
52560.0,STARLINK-3956,PAYLOAD,2022-10-25 01:07:23,15.08816448,0.0001855,53.2169,248.1801,47.7277,312.3873,-0.00015654,-2.777e-05,0.0,0 STARLINK-3956,1 52560U 22051AD  22298.04680285 -.00002777  00000-0 -15654-3 0  9993,2 52560  53.2169 248.1801 0001855  47.7277 312.3873 15.08816448 25710,6917.9519999999975,95.439,541.101,538.534,0.0
52560.0,STARLINK-3956,PAYLOAD,2022-10-25 05:53:32,15.08830247,0.0001802,53.216,247.2873,48.6187,311.496,-0.00011077,-2.05e-05,0.0,0 STARLINK-3956,1 52560U 22051AD  22298.24551436 -.00002050  00000-0 -11077-3 0  9999,2 52560  53.2160 247.2873 0001802  48.6187 311.4960 15.08830247 25745,6917.91,95.438,541.0219999999998,538.529,0.0
52560.0,STARLINK-3956,PAYLOAD,2022-10-25 18:36:36,15.08837945,0.0001771,53.2163,244.9085,51.4139,308.7012,9.0765e-05,1.157e-05,0.0,0 STARLINK-3956,1 52560U 22051AD  22298.77542709  .00001157  00000-0  90765-4 0  9997,2 52560  53.2163 244.9085 0001771  51.4139 308.7012 15.08837945 25751,6917.887,95.438,540.977,538.5269999999998,0.0
52560.0,STARLINK-3956,PAYLOAD,2022-10-26 05:44:19,15.08853059,0.0001573,53.2163,242.8277,47.8878,312.2248,0.0011106,0.00017438,0.0,0 STARLINK-3956,1 52560U 22051AD  22299.23911142  .00017438  00000-0  11106-2 0  9999,2 52560  53.2163 242.8277 0001573  47.8878 312.2248 15.08853059 25823,6917.84,95.437,540.794,538.617,0.0
52560.0,STARLINK-3956,PAYLOAD,2022-10-26 18:27:24,15.088470999999998,0.0001585999999999,53.2167,240.4482,49.7789,310.3341,0.00041326,6.296e-05,0.0,0 STARLINK-3956,1 52560U 22051AD  22299.76903076  .00006296  00000-0  41326-3 0  9992,2 52560  53.2167 240.4482 0001586  49.7789 310.3341 15.08847100 25907,6917.859,95.437,540.821,538.627,0.0
52560.0,STARLINK-3956,PAYLOAD,2022-10-27 05:35:05,15.08857475,0.0001698,53.2167,238.3669,51.1415,308.9728,0.0004071,6.2e-05,0.0,0 STARLINK-3956,1 52560U 22051AD  22300.23270366  .00006200  00000-0  40710-3 0  9997,2 52560  53.2167 238.3669 0001698  51.1415 308.9728 15.08857475 25972,6917.8269999999975,95.436,540.867,538.5169999999998,0.0
52560.0,STARLINK-3956,PAYLOAD,2022-10-27 23:04:19,15.08851526,0.000186,53.2169,235.0955,49.8859,310.2296,0.00023085,3.389e-05,0.0,0 STARLINK-3956,1 52560U 22051AD  22300.96134080  .00003389  00000-0  23085-3 0  9990,2 52560  53.2169 235.0955 0001860  49.8859 310.2296 15.08851526 26151,6917.845,95.437,540.997,538.423,0.0
52560.0,STARLINK-3956,PAYLOAD,2022-10-28 02:15:06,15.08855175,0.0001933,53.2172,234.5023,42.2879,317.8262,0.00031505,4.732e-05,0.0,0 STARLINK-3956,1 52560U 22051AD  22301.09382012  .00004732  00000-0  31505-3 0  9994,2 52560  53.2172 234.5023 0001933  42.2879 317.8262 15.08855175 26100,6917.834,95.437,541.036,538.362,0.0
52560.0,STARLINK-3956,PAYLOAD,2022-10-29 02:05:52,15.08851364,0.0001844,53.217,230.0412,51.5902,308.5256,0.00024161,3.5600000000000005e-05,0.0,0 STARLINK-3956,1 52560U 22051AD  22302.08741864  .00003560  00000-0  24161-3 0  9996,2 52560  53.2170 230.0412 0001844  51.5902 308.5256 15.08851364 26254,6917.846,95.437,540.986,538.435,0.0
52560.0,STARLINK-3956,PAYLOAD,2022-10-29 19:35:07,15.08849542,0.0001838,53.2165,226.7708,52.3969,307.719,0.0001776,2.54e-05,0.0,0 STARLINK-3956,1 52560U 22051AD  22302.81605643  .00002540  00000-0  17760-3 0  9995,2 52560  53.2165 226.7708 0001838  52.3969 307.7190 15.08849542 26368,6917.851,95.437,540.988,538.445,0.0
52560.0,STARLINK-3956,PAYLOAD,2022-10-29 22:45:53,15.08847977,0.0001806,53.2168,226.1757,51.8082,308.3072,0.00010803,1.432e-05,0.0,0 STARLINK-3956,1 52560U 22051AD  22302.94853615  .00001432  00000-0  10803-3 0  9993,2 52560  53.2168 226.1757 0001806  51.8082 308.3072 15.08847977 26450,6917.856,95.437,540.97,538.472,0.0
52560.0,STARLINK-3956,PAYLOAD,2022-10-30 00:21:16,15.088476000000002,0.0001810999999999,53.2168,225.8783,51.6767,308.4388,0.00010003,1.305e-05,0.0,0 STARLINK-3956,1 52560U 22051AD  22303.01477587  .00001305  00000-0  10003-3 0  9993,2 52560  53.2168 225.8783 0001811  51.6767 308.4388 15.08847600 26396,6917.857,95.437,540.975,538.469,0.0
52560.0,STARLINK-3956,PAYLOAD,2022-10-30 19:25:54,15.08839239,0.000177,53.2163,222.3108,57.4892,302.6271,-4.9643e-05,-1.078e-05,0.0,0 STARLINK-3956,1 52560U 22051AD  22303.80965542 -.00001078  00000-0 -49643-4 0  9995,2 52560  53.2163 222.3108 0001770  57.4892 302.6271 15.08839239 26511,6917.8830000000025,95.438,540.972,538.523,0.0
52560.0,STARLINK-3956,PAYLOAD,2022-10-31 03:22:51,15.08820627,0.0001771999999999,53.2169,220.8231,47.8269,312.2873,-0.00024697,-4.214e-05,0.0,0 STARLINK-3956,1 52560U 22051AD  22304.14086875 -.00004214  00000-0 -24697-3 0  9992,2 52560  53.2169 220.8231 0001772  47.8269 312.2873 15.08820627 26561,6917.94,95.439,541.03,538.5790000000002,0.0
52560.0,STARLINK-3956,PAYLOAD,2022-10-31 19:16:42,15.08831426,0.0001583,53.2172,217.8492,52.7215,307.3921,-2.8319e-06,-3.33e-06,0.0,0 STARLINK-3956,1 52560U 22051AD  22304.80326826 -.00000333  00000-0 -28319-5 0  9993,2 52560  53.2172 217.8492 0001583  52.7215 307.3921 15.08831426 26665,6917.906999999997,95.438,540.867,538.6759999999998,0.0
52560.0,STARLINK-3956,PAYLOAD,2022-11-01 01:38:14,15.08844248,0.0001685,53.2169,216.6604,48.8038,311.3099,0.00031592,4.744e-05,0.0,0 STARLINK-3956,1 52560U 22051AD  22305.06822466  .00004744  00000-0  31592-3 0  9996,2 52560  53.2169 216.6604 0001685  48.8038 311.3099 15.08844248 26774,6917.8669999999975,95.437,540.898,538.567,0.0
52560.0,STARLINK-3956,PAYLOAD,2022-11-01 12:45:56,15.08843855,0.000164,53.2166,214.5802,54.79600000000001,305.3185,0.00049077,7.532e-05,0.0,0 STARLINK-3956,1 52560U 22051AD  22305.53190791  .00007532  00000-0  49077-3 0  9992,2 52560  53.2166 214.5802 0001640  54.7960 305.3185 15.08843855 26771,6917.869000000002,95.437,540.868,538.599,0.0
